{"type": "FeatureCollection", "features": [ {"type": "Feature", "properties": {"norad_id": 32088, "name": "FENGYUN 1C DEB", "group": "fengyun-1c-debris", "lat": 53.51230387288393, "lon": 54.46512289243946, "alt_km": 1399.497159273562, "timestamp": "2025-12-16T10:53:45.755018+00:00", "meta": {"OBJECT_NAME": "FENGYUN 1C DEB", "OBJECT_ID": "1999-025CQE", "EPOCH": "2025-12-15T21:36:05.667840", "MEAN_MOTION": 13.25197098, "ECCENTRICITY": 0.04616562, "INCLINATION": 102.4009, "RA_OF_ASC_NODE": 216.4992, "ARG_OF_PERICENTER": 350.3137, "MEAN_ANOMALY": 8.9301, "EPHEMERIS_TYPE": 0, "CLASSIFICATION_TYPE": "U", "NORAD_CAT_ID": 32088, "ELEMENT_SET_NO": 999, "REV_AT_EPOCH": 59886, "BSTAR": 0.002493221, "MEAN_MOTION_DOT": 1.862e-05, "MEAN_MOTION_DDOT": 0}, "tle": {"line1": "1 32088U 99025CQE 25349.90006560  .00001862  00000+0  24932-2 0  9993", "line2": "2 32088 102.4009 216.4992 0461656 350.3137   8.9301 13.25197098598864"}}, "geometry": {"type": "Point", "coordinates": [54.46512289243946, 53.51230387288393]}}, {"type": "Feature", "properties": {"norad_id": 32089, "name": "FENGYUN 1C DEB", "group": "fengyun-1c-debris", "lat": -37.829237222505135, "lon": 2.704623050807289, "alt_km": 923.0328342703779, "timestamp": "2025-12-16T10:53:45.755028+00:00", "meta": {"OBJECT_NAME": "FENGYUN 1C DEB", "OBJECT_ID": "1999-025CQF", "EPOCH": "2025-12-12T06:53:11.826816", "MEAN_MOTION": 14.14067059, "ECCENTRICITY": 0.01123779, "INCLINATION": 98.6547, "RA_OF_ASC_NODE": 351.8762, "ARG_OF_PERICENTER": 125.2996, "MEAN_ANOMALY": 235.875, "EPHEMERIS_TYPE": 0, "CLASSIFICATION_TYPE": "U", "NORAD_CAT_ID": 32089, "ELEMENT_SET_NO": 999, "REV_AT_EPOCH": 63209, "BSTAR": 0.00077843034, "MEAN_MOTION_DOT": 1.532e-05, "MEAN_MOTION_DDOT": 0}, "tle": {"line1": "1 32089U 99025CQF 25346.28694244  .00001532  00000+0  77843-3 0  9998", "line2": "2 32089  98.6547 351.8762 0112377 125.2996 235.8750 14.14067059632097"}}, "geometry": {"type": "Point", "coordinates": [2.704623050807289, -37.829237222505135]}}, {"type": "Feature", "properties": {"norad_id": 32093, "name": "FENGYUN 1C DEB", "group": "fengyun-1c-debris", "lat": 4.374219713616549, "lon": 24.11408630831205, "alt_km": 824.0275282886887, "timestamp": "2025-12-16T10:53:45.755038+00:00", "meta": {"OBJECT_NAME": "FENGYUN 1C DEB", "OBJECT_ID": "1999-025CQK", "EPOCH": "2025-12-12T00:50:48.937632", "MEAN_MOTION": 14.37603697, "ECCENTRICITY": 0.00794334, "INCLINATION": 98.9197, "RA_OF_ASC_NODE": 198.8432, "ARG_OF_PERICENTER": 355.6405, "MEAN_ANOMALY": 4.4079, "EPHEMERIS_TYPE": 0, "CLASSIFICATION_TYPE": "U", "NORAD_CAT_ID": 32093, "ELEMENT_SET_NO": 999, "REV_AT_EPOCH": 96507, "BSTAR": 0.00063485421, "MEAN_MOTION_DOT": 1.927e-05, "MEAN_MOTION_DDOT": 0}, "tle": {"line1": "1 32093U 99025CQK 25346.03528863  .00001927  00000+0  63485-3 0  9994", "line2": "2 32093  98.9197 198.8432 0079433 355.6405   4.4079 14.37603697965078"}}, "geometry": {"type": "Point", "coordinates": [24.11408630831205, 4.374219713616549]}}, {"type": "Feature", "properties": {"norad_id": 32094, "name": "FENGYUN 1C DEB", "group": "fengyun-1c-debris", "lat": -35.94835551953194, "lon": -12.825055080665695, "alt_km": 852.8243696090776, "timestamp": "2025-12-16T10:53:45.755048+00:00", "meta": {"OBJECT_NAME": "FENGYUN 1C DEB", "OBJECT_ID": "1999-025CQL", "EPOCH": "2025-12-11T22:07:39.581760", "MEAN_MOTION": 14.10725237, "ECCENTRICITY": 0.0034065, "INCLINATION": 98.7447, "RA_OF_ASC_NODE": 336.3568, "ARG_OF_PERICENTER": 270.97, "MEAN_ANOMALY": 88.7568, "EPHEMERIS_TYPE": 0, "CLASSIFICATION_TYPE": "U", "NORAD_CAT_ID": 32094, "ELEMENT_SET_NO": 999, "REV_AT_EPOCH": 94353, "BSTAR": 0.00058116, "MEAN_MOTION_DOT": 1.001e-05, "MEAN_MOTION_DDOT": 0}, "tle": {"line1": "1 32094U 99025CQL 25345.92198590  .00001001  00000+0  58116-3 0  9990", "line2": "2 32094  98.7447 336.3568 0034065 270.9700  88.7568 14.10725237943534"}}, "geometry": {"type": "Point", "coordinates": [-12.825055080665695, -35.94835551953194]}}, {"type": "Feature", "properties": {"norad_id": 32095, "name": "FENGYUN 1C DEB", "group": "fengyun-1c-debris", "lat": -26.7876701403984, "lon": -178.44514129679473, "alt_km": 877.1961459150107, "timestamp": "2025-12-16T10:53:45.755059+00:00", "meta": {"OBJECT_NAME": "FENGYUN 1C DEB", "OBJECT_ID": "1999-025CQM", "EPOCH": "2025-12-15T20:21:45.511488", "MEAN_MOTION": 14.16043198, "ECCENTRICITY": 0.00791217, "INCLINATION": 98.6409, "RA_OF_ASC_NODE": 5.3704, "ARG_OF_PERICENTER": 83.3653, "MEAN_ANOMALY": 277.6519, "EPHEMERIS_TYPE": 0, "CLASSIFICATION_TYPE": "U", "NORAD_CAT_ID": 32095, "ELEMENT_SET_NO": 999, "REV_AT_EPOCH": 94861, "BSTAR": 0.00026967089, "MEAN_MOTION_DOT": 5.07e-06, "MEAN_MOTION_DDOT": 0}, "tle": {"line1": "1 32095U 99025CQM 25349.84844342  .00000507  00000+0  26967-3 0  9998", "line2": "2 32095  98.6409   5.3704 0079121  83.3653 277.6519 14.16043198948616"}}, "geometry": {"type": "Point", "coordinates": [-178.44514129679473, -26.7876701403984]}}, {"type": "Feature", "properties": {"norad_id": 32096, "name": "FENGYUN 1C DEB", "group": "fengyun-1c-debris", "lat": 10.348849907515143, "lon": 17.68419812718757, "alt_km": 976.4693618119518, "timestamp": "2025-12-16T10:53:45.755069+00:00", "meta": {"OBJECT_NAME": "FENGYUN 1C DEB", "OBJECT_ID": "1999-025CQN", "EPOCH": "2025-12-15T19:17:56.877792", "MEAN_MOTION": 13.90201525, "ECCENTRICITY": 0.01345869, "INCLINATION": 99.0744, "RA_OF_ASC_NODE": 18.7224, "ARG_OF_PERICENTER": 131.6647, "MEAN_ANOMALY": 229.6125, "EPHEMERIS_TYPE": 0, "CLASSIFICATION_TYPE": "U", "NORAD_CAT_ID": 32096, "ELEMENT_SET_NO": 999, "REV_AT_EPOCH": 92904, "BSTAR": 0.0013400055, "MEAN_MOTION_DOT": 1.742e-05, "MEAN_MOTION_DDOT": 0}, "tle": {"line1": "1 32096U 99025CQN 25349.80413053  .00001742  00000+0  13400-2 0  9995", "line2": "2 32096  99.0744  18.7224 0134586 131.6647 229.6125 13.90201525929043"}}, "geometry": {"type": "Point", "coordinates": [17.68419812718757, 10.348849907515143]}}, {"type": "Feature", "properties": {"norad_id": 32098, "name": "FENGYUN 1C DEB", "group": "fengyun-1c-debris", "lat": 80.95839084231557, "lon": -124.96104869936877, "alt_km": 681.3631347105784, "timestamp": "2025-12-16T10:53:45.755079+00:00", "meta": {"OBJECT_NAME": "FENGYUN 1C DEB", "OBJECT_ID": "1999-025CQQ", "EPOCH": "2025-12-15T17:33:36.426240", "MEAN_MOTION": 14.20261069, "ECCENTRICITY": 0.01959381, "INCLINATION": 98.6118, "RA_OF_ASC_NODE": 342.0979, "ARG_OF_PERICENTER": 111.1903, "MEAN_ANOMALY": 251.0331, "EPHEMERIS_TYPE": 0, "CLASSIFICATION_TYPE": "U", "NORAD_CAT_ID": 32098, "ELEMENT_SET_NO": 999, "REV_AT_EPOCH": 64270, "BSTAR": 0.00025870698, "MEAN_MOTION_DOT": 6.27e-06, "MEAN_MOTION_DDOT": 0}, "tle": {"line1": "1 32098U 99025CQQ 25349.73167160  .00000627  00000+0  25871-3 0  9991", "line2": "2 32098  98.6118 342.0979 0195938 111.1903 251.0331 14.20261069642707"}}, "geometry": {"type": "Point", "coordinates": [-124.96104869936877, 80.95839084231557]}}, {"type": "Feature", "properties": {"norad_id": 32099, "name": "FENGYUN 1C DEB", "group": "fengyun-1c-debris", "lat": -9.97157005916042, "lon": 140.43692149108068, "alt_km": 852.6242067166186, "timestamp": "2025-12-16T10:53:45.755089+00:00", "meta": {"OBJECT_NAME": "FENGYUN 1C DEB", "OBJECT_ID": "1999-025CQR", "EPOCH": "2025-12-13T04:24:17.454240", "MEAN_MOTION": 13.91776468, "ECCENTRICITY": 0.0342884, "INCLINATION": 98.2818, "RA_OF_ASC_NODE": 318.9761, "ARG_OF_PERICENTER": 273.816, "MEAN_ANOMALY": 102.5607, "EPHEMERIS_TYPE": 0, "CLASSIFICATION_TYPE": "U", "NORAD_CAT_ID": 32099, "ELEMENT_SET_NO": 999, "REV_AT_EPOCH": 64694, "BSTAR": 0.001759049, "MEAN_MOTION_DOT": 3.576e-05, "MEAN_MOTION_DDOT": 0}, "tle": {"line1": "1 32099U 99025CQR 25347.18353535  .00003576  00000+0  17590-2 0  9996", "line2": "2 32099  98.2818 318.9761 0342884 273.8160 102.5607 13.91776468646944"}}, "geometry": {"type": "Point", "coordinates": [140.43692149108068, -9.97157005916042]}}, {"type": "Feature", "properties": {"norad_id": 32101, "name": "FENGYUN 1C DEB", "group": "fengyun-1c-debris", "lat": 49.66161646946562, "lon": -121.31890587460806, "alt_km": 970.9262209552926, "timestamp": "2025-12-16T10:53:45.755099+00:00", "meta": {"OBJECT_NAME": "FENGYUN 1C DEB", "OBJECT_ID": "1999-025CQT", "EPOCH": "2025-12-15T10:39:57.302208", "MEAN_MOTION": 14.01667593, "ECCENTRICITY": 0.01204877, "INCLINATION": 99.0323, "RA_OF_ASC_NODE": 248.4771, "ARG_OF_PERICENTER": 231.2566, "MEAN_ANOMALY": 127.7782, "EPHEMERIS_TYPE": 0, "CLASSIFICATION_TYPE": "U", "NORAD_CAT_ID": 32101, "ELEMENT_SET_NO": 999, "REV_AT_EPOCH": 93220, "BSTAR": 0.0015876865, "MEAN_MOTION_DOT": 2.52e-05, "MEAN_MOTION_DDOT": 0}, "tle": {"line1": "1 32101U 99025CQT 25349.44441322  .00002520  00000+0  15877-2 0  9997", "line2": "2 32101  99.0323 248.4771 0120487 231.2566 127.7782 14.01667593932207"}}, "geometry": {"type": "Point", "coordinates": [-121.31890587460806, 49.66161646946562]}}, {"type": "Feature", "properties": {"norad_id": 32105, "name": "FENGYUN 1C DEB", "group": "fengyun-1c-debris", "lat": -73.01566852343193, "lon": 111.49673066171313, "alt_km": 1403.13054110527, "timestamp": "2025-12-16T10:53:45.755109+00:00", "meta": {"OBJECT_NAME": "FENGYUN 1C DEB", "OBJECT_ID": "1999-025CQX", "EPOCH": "2025-12-06T04:11:30.067584", "MEAN_MOTION": 13.40226263, "ECCENTRICITY": 0.03939271, "INCLINATION": 103.4626, "RA_OF_ASC_NODE": 329.5114, "ARG_OF_PERICENTER": 88.9087, "MEAN_ANOMALY": 275.7122, "EPHEMERIS_TYPE": 0, "CLASSIFICATION_TYPE": "U", "NORAD_CAT_ID": 32105, "ELEMENT_SET_NO": 999, "REV_AT_EPOCH": 59623, "BSTAR": 0.0040140571, "MEAN_MOTION_DOT": 3.389e-05, "MEAN_MOTION_DDOT": 0}, "tle": {"line1": "1 32105U 99025CQX 25340.17465356  .00003389  00000+0  40141-2 0  9991", "line2": "2 32105 103.4626 329.5114 0393927  88.9087 275.7122 13.40226263596233"}}, "geometry": {"type": "Point", "coordinates": [111.49673066171313, -73.01566852343193]}}]}